IRIDIUM 150             
1 43257U 18030J   24196.57915988  .00000349  00000+0  11754-3 0  9993
2 43257  86.3963 224.0727 0002503  86.5334 273.6148 14.34218391329451
IRIDIUM 143             
1 43258U 18030K   24196.56013244  .00000143  00000+0  43828-4 0  9997
2 43258  86.3966 224.1456 0002461  83.9700 276.1776 14.34218156329416
IRIDIUM 161             
1 43478U 18047C   24196.57025625  .00000246  00000+0  67109-4 0  9998
2 43478  86.4489  22.0934 0002174  83.7445 276.4004 14.43277028323797
IRIDIUM 152             
1 43479U 18047D   24196.60261726  .00000129  00000+0  39130-4 0  9990
2 43479  86.3964  21.9394 0002179  89.8093 270.3353 14.34217594321783
IRIDIUM 147             
1 43480U 18047E   24196.60895950  .00000187  00000+0  59552-4 0  9998
2 43480  86.3966  21.9295 0002119  91.7726 268.3712 14.34217565321780
IRIDIUM 110             
1 43481U 18047F   24196.61529913  .00000160  00000+0  50137-4 0  9994
2 43481  86.3969  22.0005 0002064 100.6688 259.4740 14.34217498321777
IRIDIUM 162             
1 43482U 18047G   24196.56402052  .00000230  00000+0  62434-4 0  9994
2 43482  86.4487  21.9958 0002291  89.7613 270.3850 14.43272255323785
IRIDIUM 160             
1 43569U 18061A   24196.49136685  .00000903  00000+0  31529-3 0  9991
2 43569  86.3989 350.4373 0001816  96.4488 263.6915 14.34216591312657
